{
  "type": "FeatureCollection",
  "features": [
    {
      "type": "Feature",
      "properties": {
        "norad_id": 2807,
        "name": "OPS 7218 (TRANSIT 16)",
        "group": "nnss",
        "lat": 45.619868114789305,
        "lon": -5.684177430621328,
        "alt_km": 1058.871459141148,
        "timestamp": "2025-12-13T18:50:04.698978+00:00",
        "meta_object_name": "OPS 7218 (TRANSIT 16)",
        "meta_object_id": "1967-048A",
        "meta_epoch": "2025-12-13T06:13:24.964608",
        "meta_mean_motion": 13.50722269,
        "meta_eccentricity": 0.00219842,
        "meta_inclination": 89.6732,
        "meta_ra_of_asc_node": 353.999,
        "meta_arg_of_pericenter": 112.6791,
        "meta_mean_anomaly": 259.6646,
        "meta_ephemeris_type": 0,
        "meta_classification_type": "U",
        "meta_norad_cat_id": 2807,
        "meta_element_set_no": 999,
        "meta_rev_at_epoch": 88283,
        "meta_bstar": 0.000193005,
        "meta_mean_motion_dot": 1.35e-06,
        "meta_mean_motion_ddot": 0,
        "tle_line1": "1 02807U 67048A   25347.25931672  .00000135  00000+0  19300-3 0  9992",
        "tle_line2": "2 02807  89.6732 353.9990 0021984 112.6791 259.6646 13.50722269882837"
      },
      "geometry": {
        "type": "Point",
        "coordinates": [
          -5.684177430621328,
          45.619868114789305
        ]
      }
    },
    {
      "type": "Feature",
      "properties": {
        "norad_id": 2965,
        "name": "OPS 4947 (TRANSIT 17)",
        "group": "nnss",
        "lat": 59.756168294534554,
        "lon": -156.9319543083335,
        "alt_km": 1066.1847206103985,
        "timestamp": "2025-12-13T18:50:04.699000+00:00",
        "meta_object_name": "OPS 4947 (TRANSIT 17)",
        "meta_object_id": "1967-092A",
        "meta_epoch": "2025-12-13T04:22:20.244000",
        "meta_mean_motion": 13.53453585,
        "meta_eccentricity": 0.00462093,
        "meta_inclination": 89.2496,
        "meta_ra_of_asc_node": 24.4019,
        "meta_arg_of_pericenter": 233.1764,
        "meta_mean_anomaly": 193.1331,
        "meta_ephemeris_type": 0,
        "meta_classification_type": "U",
        "meta_norad_cat_id": 2965,
        "meta_element_set_no": 999,
        "meta_rev_at_epoch": 87103,
        "meta_bstar": 0.00024056866,
        "meta_mean_motion_dot": 1.74e-06,
        "meta_mean_motion_ddot": 0,
        "tle_line1": "1 02965U 67092A   25347.18217875  .00000174  00000+0  24057-3 0  9998",
        "tle_line2": "2 02965  89.2496  24.4019 0046209 233.1764 193.1331 13.53453585871031"
      },
      "geometry": {
        "type": "Point",
        "coordinates": [
          -156.9319543083335,
          59.756168294534554
        ]
      }
    },
    {
      "type": "Feature",
      "properties": {
        "norad_id": 3133,
        "name": "OPS 7034 (TRANSIT 18)",
        "group": "nnss",
        "lat": -83.62195398741117,
        "lon": 93.3911020225694,
        "alt_km": 1080.7660706027991,
        "timestamp": "2025-12-13T18:50:04.699014+00:00",
        "meta_object_name": "OPS 7034 (TRANSIT 18)",
        "meta_object_id": "1968-012A",
        "meta_epoch": "2025-12-13T07:26:06.994752",
        "meta_mean_motion": 13.51565827,
        "meta_eccentricity": 0.00739058,
        "meta_inclination": 90.028,
        "meta_ra_of_asc_node": 273.6404,
        "meta_arg_of_pericenter": 167.4806,
        "meta_mean_anomaly": 305.6155,
        "meta_ephemeris_type": 0,
        "meta_classification_type": "U",
        "meta_norad_cat_id": 3133,
        "meta_element_set_no": 999,
        "meta_rev_at_epoch": 56926,
        "meta_bstar": 0.0002240119,
        "meta_mean_motion_dot": 1.58e-06,
        "meta_mean_motion_ddot": 0,
        "tle_line1": "1 03133U 68012A   25347.30980318  .00000158  00000+0  22401-3 0  9995",
        "tle_line2": "2 03133  90.0280 273.6404 0073905 167.4806 305.6155 13.51565827569269"
      },
      "geometry": {
        "type": "Point",
        "coordinates": [
          93.3911020225694,
          -83.62195398741117
        ]
      }
    },
    {
      "type": "Feature",
      "properties": {
        "norad_id": 4507,
        "name": "NNSS 19 (TRANSIT 19)",
        "group": "nnss",
        "lat": -51.7096492396553,
        "lon": 54.52764426712286,
        "alt_km": 1006.9168105849876,
        "timestamp": "2025-12-13T18:50:04.699027+00:00",
        "meta_object_name": "NNSS 19 (TRANSIT 19)",
        "meta_object_id": "1970-067A",
        "meta_epoch": "2025-12-13T05:14:05.776224",
        "meta_mean_motion": 13.51315276,
        "meta_eccentricity": 0.01705133,
        "meta_inclination": 90.0055,
        "meta_ra_of_asc_node": 234.5343,
        "meta_arg_of_pericenter": 291.984,
        "meta_mean_anomaly": 66.3269,
        "meta_ephemeris_type": 0,
        "meta_classification_type": "U",
        "meta_norad_cat_id": 4507,
        "meta_element_set_no": 999,
        "meta_rev_at_epoch": 72228,
        "meta_bstar": 0.00021559738,
        "meta_mean_motion_dot": 1.61e-06,
        "meta_mean_motion_ddot": 0,
        "tle_line1": "1 04507U 70067A   25347.21812241  .00000161  00000+0  21560-3 0  9992",
        "tle_line2": "2 04507  90.0055 234.5343 0170513 291.9840  66.3269 13.51315276722288"
      },
      "geometry": {
        "type": "Point",
        "coordinates": [
          54.52764426712286,
          -51.7096492396553
        ]
      }
    },
    {
      "type": "Feature",
      "properties": {
        "norad_id": 6909,
        "name": "NNSS 20 (TRANSIT 20)",
        "group": "nnss",
        "lat": 19.964395259191246,
        "lon": -104.90927382817257,
        "alt_km": 927.2782332927036,
        "timestamp": "2025-12-13T18:50:04.699038+00:00",
        "meta_object_name": "NNSS 20 (TRANSIT 20)",
        "meta_object_id": "1973-081A",
        "meta_epoch": "2025-12-13T06:28:53.556384",
        "meta_mean_motion": 13.71434566,
        "meta_eccentricity": 0.01566177,
        "meta_inclination": 89.8562,
        "meta_ra_of_asc_node": 255.0462,
        "meta_arg_of_pericenter": 76.7473,
        "meta_mean_anomaly": 285.1105,
        "meta_ephemeris_type": 0,
        "meta_classification_type": "U",
        "meta_norad_cat_id": 6909,
        "meta_element_set_no": 999,
        "meta_rev_at_epoch": 80368,
        "meta_bstar": 0.00032998646,
        "meta_mean_motion_dot": 3.35e-06,
        "meta_mean_motion_ddot": 0,
        "tle_line1": "1 06909U 73081A   25347.27006431  .00000335  00000+0  32999-3 0  9992",
        "tle_line2": "2 06909  89.8562 255.0462 0156617  76.7473 285.1105 13.71434566803685"
      },
      "geometry": {
        "type": "Point",
        "coordinates": [
          -104.90927382817257,
          19.964395259191246
        ]
      }
    },
    {
      "type": "Feature",
      "properties": {
        "norad_id": 10457,
        "name": "TRANSAT",
        "group": "nnss",
        "lat": -49.64684363909476,
        "lon": -101.02557611848952,
        "alt_km": 1069.2168426354438,
        "timestamp": "2025-12-13T18:50:04.699049+00:00",
        "meta_object_name": "TRANSAT",
        "meta_object_id": "1977-106A",
        "meta_epoch": "2025-12-13T07:18:45.480384",
        "meta_mean_motion": 13.48943759,
        "meta_eccentricity": 0.00254522,
        "meta_inclination": 89.6481,
        "meta_ra_of_asc_node": 78.577,
        "meta_arg_of_pericenter": 187.8252,
        "meta_mean_anomaly": 231.5479,
        "meta_ephemeris_type": 0,
        "meta_classification_type": "U",
        "meta_norad_cat_id": 10457,
        "meta_element_set_no": 999,
        "meta_rev_at_epoch": 36751,
        "meta_bstar": 0.0001616254,
        "meta_mean_motion_dot": 1.12e-06,
        "meta_mean_motion_ddot": 0,
        "tle_line1": "1 10457U 77106A   25347.30469306  .00000112  00000+0  16163-3 0  9993",
        "tle_line2": "2 10457  89.6481  78.5770 0025452 187.8252 231.5479 13.48943759367516"
      },
      "geometry": {
        "type": "Point",
        "coordinates": [
          -101.02557611848952,
          -49.64684363909476
        ]
      }
    },
    {
      "type": "Feature",
      "properties": {
        "norad_id": 12458,
        "name": "NOVA 1",
        "group": "nnss",
        "lat": 34.21994075358986,
        "lon": 91.47067494849175,
        "alt_km": 1165.2990063943662,
        "timestamp": "2025-12-13T18:50:04.699061+00:00",
        "meta_object_name": "NOVA 1",
        "meta_object_id": "1981-044A",
        "meta_epoch": "2025-12-13T08:04:22.436256",
        "meta_mean_motion": 13.23278602,
        "meta_eccentricity": 0.00158902,
        "meta_inclination": 89.8524,
        "meta_ra_of_asc_node": 91.3766,
        "meta_arg_of_pericenter": 102.5175,
        "meta_mean_anomaly": 317.0788,
        "meta_ephemeris_type": 0,
        "meta_classification_type": "U",
        "meta_norad_cat_id": 12458,
        "meta_element_set_no": 999,
        "meta_rev_at_epoch": 15194,
        "meta_bstar": 0.00019925758,
        "meta_mean_motion_dot": 9.3e-07,
        "meta_mean_motion_ddot": 0,
        "tle_line1": "1 12458U 81044A   25347.33637079  .00000093  00000+0  19926-3 0  9997",
        "tle_line2": "2 12458  89.8524  91.3766 0015890 102.5175 317.0788 13.23278602151942"
      },
      "geometry": {
        "type": "Point",
        "coordinates": [
          91.47067494849175,
          34.21994075358986
        ]
      }
    }
  ]
}